NORAD_CAT_ID,OBJECT_NAME,OBJECT_TYPE,EPOCH,MEAN_MOTION,ECCENTRICITY,INCLINATION,RA_OF_ASC_NODE,ARG_OF_PERICENTER,MEAN_ANOMALY,BSTAR,MEAN_MOTION_DOT,MEAN_MOTION_DDOT,TLE_LINE0,TLE_LINE1,TLE_LINE2,SEMIMAJOR_AXIS,PERIOD,APOGEE,PERIGEE,DECAYED
56768.0,STARLINK-6198,PAYLOAD,2024-03-31 22:07:54,14.99142147,0.000297,69.9998,309.1185,268.102,91.98,1.5894e-05,1e-06,0.0,0 STARLINK-6198,1 56768U 23078B   24091.92215339  .00000100  00000-0  15894-4 0  9994,2 56768  69.9998 309.1185 0002970 268.1020  91.9800 14.99142147 47154,6947.683,96.055,571.611,567.484,0.0
56768.0,STARLINK-6198,PAYLOAD,2024-04-01 07:44:24,14.99133607,0.0003008,70.002,308.1074,269.1508,90.9307,-4.5975e-05,-6.54e-06,0.0,0 STARLINK-6198,1 56768U 23078B   24092.32250348 -.00000654  00000-0 -45975-4 0  9997,2 56768  70.0020 308.1074 0003008 269.1508  90.9307 14.99133607 47471,6947.709,96.055,571.664,567.484,0.0
56768.0,STARLINK-6198,PAYLOAD,2024-04-02 07:45:38,14.99136606,0.0003121,69.9989,305.5807,268.4185,91.6617,-2.3617e-05,-3.81e-06,0.0,0 STARLINK-6198,1 56768U 23078B   24093.32336299 -.00000381  00000-0 -23617-4 0  9994,2 56768  69.9989 305.5807 0003121 268.4185  91.6617 14.99136606 47627,6947.7,96.055,571.733,567.396,0.0
56768.0,STARLINK-6198,PAYLOAD,2024-04-02 20:34:17,14.99140054,0.0003173,69.9988,304.2329,268.5568,91.5228,-2.2044e-05,-3.62e-06,0.0,0 STARLINK-6198,1 56768U 23078B   24093.85715270 -.00000362  00000-0 -22044-4 0  9994,2 56768  69.9988 304.2329 0003173 268.5568  91.5228 14.99140054 47443,6947.689,96.055,571.758,567.349,0.0
56768.0,STARLINK-6198,PAYLOAD,2024-04-03 12:35:07,14.99135774,0.0003201,69.9987,302.5483,268.191,91.8883,8.4827e-05,9.4e-06,0.0,0 STARLINK-6198,1 56768U 23078B   24094.52439191  .00000940  00000-0  84827-4 0  9991,2 56768  69.9987 302.5483 0003201 268.1910  91.8883 14.99135774 47806,6947.702,96.055,571.791,567.343,0.0
56768.0,STARLINK-6198,PAYLOAD,2024-04-03 20:35:32,14.9913923,0.0003243,69.9985,301.7062,268.6438,91.435,5.0588e-05,5.23e-06,0.0,0 STARLINK-6198,1 56768U 23078B   24094.85801075  .00000523  00000-0  50588-4 0  9995,2 56768  69.9985 301.7062 0003243 268.6438  91.4350 14.99139230 47596,6947.692,96.055,571.81,567.303,0.0
56768.0,STARLINK-6198,PAYLOAD,2024-04-04 14:12:26,14.99138853,0.0003218,69.9984,299.853,268.6467,91.4324,6.1032e-06,-1.9e-07,0.0,0 STARLINK-6198,1 56768U 23078B   24095.59197577 -.00000019  00000-0  61032-5 0  9990,2 56768  69.9984 299.8530 0003218 268.6467  91.4324 14.99138853 47700,6947.693,96.055,571.793,567.322,0.0
56768.0,STARLINK-6198,PAYLOAD,2024-04-04 20:36:46,14.99140778,0.0003217,69.9983,299.1791,268.7133,91.3658,1.6306e-05,1.05e-06,0.0,0 STARLINK-6198,1 56768U 23078B   24095.85887001  .00000105  00000-0  16306-4 0  9995,2 56768  69.9983 299.1791 0003217 268.7133  91.3658 14.99140778 48003,6947.687,96.055,571.787,567.317,0.0
56768.0,STARLINK-6198,PAYLOAD,2024-04-04 22:12:51,14.99141457,0.0003215,69.9983,299.0107,268.6996,91.3795,2.349e-05,1.92e-06,0.0,0 STARLINK-6198,1 56768U 23078B   24095.92559323  .00000192  00000-0  23490-4 0  9994,2 56768  69.9983 299.0107 0003215 268.6996  91.3795 14.99141457 47755,6947.685,96.055,571.783,567.316,0.0
56768.0,STARLINK-6198,PAYLOAD,2024-04-05 14:13:40,14.99141054,0.0003142,69.9985,297.3261,269.6647,90.4153,-6.3846e-06,-1.72e-06,0.0,0 STARLINK-6198,1 56768U 23078B   24096.59283326 -.00000172  00000-0 -63846-5 0  9995,2 56768  69.9985 297.3261 0003142 269.6647  90.4153 14.99141054 47854,6947.686,96.055,571.734,567.368,0.0
56768.0,STARLINK-6198,PAYLOAD,2024-04-05 20:38:00,14.99142123,0.0003108,69.9985,296.6523,269.5822,90.4981,1.1942e-05,5.2e-07,0.0,0 STARLINK-6198,1 56768U 23078B   24096.85972750  .00000052  00000-0  11942-4 0  9994,2 56768  69.9985 296.6523 0003108 269.5822  90.4981 14.99142123 47894,6947.683,96.055,571.707,567.388,0.0
56768.0,STARLINK-6198,PAYLOAD,2024-04-05 22:14:05,14.99142338,0.0003104,69.9985,296.4839,269.5489,90.5315,1.4158e-05,7.9e-07,0.0,0 STARLINK-6198,1 56768U 23078B   24096.92645112  .00000079  00000-0  14158-4 0  9992,2 56768  69.9985 296.4839 0003104 269.5489  90.5315 14.99142338 48168,6947.682,96.055,571.703,567.39,0.0
56768.0,STARLINK-6198,PAYLOAD,2024-04-06 06:14:30,14.99139613,0.0003085,69.9984,295.6414,269.4813,90.5993,-3.1081e-06,-1.32e-06,0.0,0 STARLINK-6198,1 56768U 23078B   24097.26007263 -.00000132  00000-0 -31081-5 0  9996,2 56768  69.9984 295.6414 0003085 269.4813  90.5993 14.99139613 47955,6947.69,96.055,571.699,567.412,0.0
56768.0,STARLINK-6198,PAYLOAD,2024-04-06 22:15:20,14.99136932,0.0003039,69.9985,293.9568,267.8853,92.1959,-3.5465e-05,-5.26e-06,0.0,0 STARLINK-6198,1 56768U 23078B   24097.92731482 -.00000526  00000-0 -35465-4 0  9992,2 56768  69.9985 293.9568 0003039 267.8853  92.1959 14.99136932 48055,6947.699,96.055,571.675,567.452,0.0
56768.0,STARLINK-6198,PAYLOAD,2024-04-07 06:15:44,14.99169432,0.0002952,69.9984,293.1144,270.2392,89.8429,-0.00057383,-7.084e-05,0.0,0 STARLINK-6198,1 56768U 23078B   24098.26092767 -.00007084  00000-0 -57383-3 0  9994,2 56768  69.9984 293.1144 0002952 270.2392  89.8429 14.99169432 48365,6947.598,96.053,571.514,567.412,0.0
56768.0,STARLINK-6198,PAYLOAD,2024-04-07 20:40:29,14.99134529,0.000299,69.9989,291.5984,266.7227,93.359,-4.0247e-05,-5.84e-06,0.0,0 STARLINK-6198,1 56768U 23078B   24098.86145323 -.00000584  00000-0 -40247-4 0  9997,2 56768  69.9989 291.5984 0002990 266.7227  93.3590 14.99134529 48451,6947.706,96.055,571.648,567.494,0.0
56768.0,STARLINK-6198,PAYLOAD,2024-04-07 22:16:34,14.99134205,0.0003017,69.9988,291.43,268.2987,91.7827,-3.4963e-05,-5.2e-06,0.0,0 STARLINK-6198,1 56768U 23078B   24098.92817749 -.00000520  00000-0 -34963-4 0  9990,2 56768  69.9988 291.4300 0003017 268.2987  91.7827 14.99134205 48201,6947.707,96.055,571.668,567.476,0.0
56768.0,STARLINK-6198,PAYLOAD,2024-04-08 12:41:18,14.99138202,0.0003128,69.9989,289.9136,268.7529,91.3272,3.1933e-05,2.95e-06,0.0,0 STARLINK-6198,1 56768U 23078B   24099.52868924  .00000295  00000-0  31933-4 0  9999,2 56768  69.9989 289.9136 0003128 268.7529  91.3272 14.99138202 48291,6947.695,96.055,571.733,567.386,0.0
56768.0,STARLINK-6198,PAYLOAD,2024-04-08 22:17:48,14.99140079,0.0003118,69.9989,288.903,268.9912,91.0891,5.5935e-05,5.88e-06,0.0,0 STARLINK-6198,1 56768U 23078B   24099.92903121  .00000588  00000-0  55935-4 0  9995,2 56768  69.9989 288.9030 0003118 268.9912  91.0891 14.99140079 48356,6947.689,96.055,571.72,567.388,0.0
56768.0,STARLINK-6198,PAYLOAD,2024-04-09 12:42:33,14.99136299,0.0003133,69.9981,287.3863,268.4125,91.6676,4.0707e-05,4.02e-06,0.0,0 STARLINK-6198,1 56768U 23078B   24100.52954959  .00000402  00000-0  40707-4 0  9995,2 56768  69.9981 287.3863 0003133 268.4125  91.6676 14.99136299 48708,6947.701,96.055,571.742,567.389,0.0
56768.0,STARLINK-6198,PAYLOAD,2024-04-09 19:06:52,14.99137965,0.0003157,69.9979,286.713,269.3445,90.7353,2.8614e-05,2.55e-06,0.0,0 STARLINK-6198,1 56768U 23078B   24100.79644515  .00000255  00000-0  28614-4 0  9997,2 56768  69.9979 286.7130 0003157 269.3445  90.7353 14.99137965 48484,6947.695,96.055,571.754,567.367,0.0
56768.0,STARLINK-6198,PAYLOAD,2024-04-10 20:44:11,14.99141665,0.0003121,69.998,284.0174,270.1551,89.9251,-1.4478e-05,-2.7e-06,0.0,0 STARLINK-6198,1 56768U 23078B   24101.86402682 -.00000270  00000-0 -14478-4 0  9995,2 56768  69.9980 284.0174 0003121 270.1551  89.9251 14.99141665 48900,6947.684,96.055,571.717,567.381,0.0
56768.0,STARLINK-6198,PAYLOAD,2024-04-10 22:20:16,14.99143274,0.0003128,69.998,283.8489,270.1805,89.8996,2.4901e-06,-6.3e-07,0.0,0 STARLINK-6198,1 56768U 23078B   24101.93074921 -.00000063  00000-0  24901-5 0  9996,2 56768  69.9980 283.8489 0003128 270.1805  89.8996 14.99143274 48650,6947.679,96.055,571.717,567.371,0.0
56768.0,STARLINK-6198,PAYLOAD,2024-04-11 14:21:06,14.99138154,0.0003115,69.9981,282.1643,270.1296,89.9506,-7.8627e-06,-1.9e-06,0.0,0 STARLINK-6198,1 56768U 23078B   24102.59799152 -.00000190  00000-0 -78627-5 0  9995,2 56768  69.9981 282.1643 0003115 270.1296  89.9506 14.99138154 48755,6947.695,96.055,571.724,567.396,0.0
56768.0,STARLINK-6198,PAYLOAD,2024-04-11 20:45:26,14.99140775,0.0003019,69.9991,281.4908,270.3493,89.7321,6.4384e-06,-1.5e-07,0.0,0 STARLINK-6198,1 56768U 23078B   24102.86488530 -.00000015  00000-0  64384-5 0  9990,2 56768  69.9991 281.4908 0003019 270.3493  89.7321 14.99140775 49055,6947.687,96.055,571.649,567.454,0.0
56768.0,STARLINK-6198,PAYLOAD,2024-04-12 14:22:20,14.991362,0.0002991,69.9993,279.6379,269.8861,90.1955,-3.3404e-05,-5.01e-06,0.0,0 STARLINK-6198,1 56768U 23078B   24103.59885271 -.00000501  00000-0 -33404-4 0  9993,2 56768  69.9993 279.6379 0002991 269.8861  90.1955 14.99136200 48908,6947.701,96.055,571.644,567.488,0.0
56768.0,STARLINK-6198,PAYLOAD,2024-04-13 14:23:35,14.99137751,0.0002949,69.9994,277.1115,266.4033,93.6789,-2.8273e-05,-4.38e-06,0.0,0 STARLINK-6198,1 56768U 23078B   24104.59971198 -.00000438  00000-0 -28273-4 0  9995,2 56768  69.9994 277.1115 0002949 266.4033  93.6789 14.99137751 49059,6947.696,96.055,571.61,567.512,0.0
56768.0,STARLINK-6198,PAYLOAD,2024-04-13 20:47:54,14.99137405,0.0002874,69.9996,276.4382,264.2893,95.7939,-1.2343e-05,-2.44e-06,0.0,0 STARLINK-6198,1 56768U 23078B   24104.86660786 -.00000244  00000-0 -12343-4 0  9999,2 56768  69.9996 276.4382 0002874 264.2893  95.7939 14.99137405 49355,6947.697,96.055,571.559,567.565,0.0
56768.0,STARLINK-6198,PAYLOAD,2024-04-14 17:37:00,14.99117325,0.0002831,69.9995,274.249,258.6789,101.4052,-0.00019633,-2.484e-05,0.0,0 STARLINK-6198,1 56768U 23078B   24105.73403789 -.00002484  00000-0 -19633-3 0  9990,2 56768  69.9995 274.2490 0002831 258.6789 101.4052 14.99117325 49488,6947.759,96.057,571.591,567.657,0.0
56768.0,STARLINK-6198,PAYLOAD,2024-04-14 20:49:06,14.99173283,0.0003041,69.9999,273.9119,261.6078,98.4737,0.00042774,5.127e-05,0.0,0 STARLINK-6198,1 56768U 23078B   24105.86743501  .00005127  00000-0  42774-3 0  9990,2 56768  69.9999 273.9119 0003041 261.6078  98.4737 14.99173283 49249,6947.586,96.053,571.564,567.339,0.0
